CZ-4B R/B               
1 27432U 02024C   24160.62134655  .00000155  00000+0  10315-3 0  9994
2 27432  98.9754 202.9008 0050887  36.3420 126.7449 14.14325015138897
MIDORI II (ADEOS-II)    
1 27597U 02056A   24160.56163827  .00000653  00000+0  27898-3 0  9994
2 27597  98.6916 107.2831 0002182  76.6235 283.5190 14.28368326119029
H-2A R/B                
1 27601U 02056E   24160.50622035  .00000594  00000+0  22698-3 0  9992
2 27601  98.2294 138.0064 0069874 267.4142 203.1058 14.32827594122542
CZ-4B R/B               
1 28059U 03049C   24160.51413526  .00001014  00000+0  24951-3 0  9999
2 28059  98.6103 122.6397 0049688  24.0009 336.3487 14.53784938 93685
CZ-2C R/B               
1 28222U 04012C   24160.50586668  .00017651  00000+0  67640-3 0  9995
2 28222  97.8032 173.1013 0036239  81.6453 278.8890 15.25966854105776
SL-16 R/B               
1 28353U 04021B   24160.39443941  .00000456  00000+0  26266-3 0  9997
2 28353  70.9992 133.9350 0006985 283.3599  76.6744 14.14417053 32436
CZ-4B R/B               
1 28415U 04035C   24160.55499520  .00010373  00000+0  53515-3 0  9999
2 28415  97.4232 194.4066 0044018  55.2288 305.3076 15.15664787 82651
CZ-2C R/B               
1 28480U 04046B   24160.60090395  .00000312  00000+0  13291-3 0  9995
2 28480  98.1622 105.3989 0139422 244.5368 114.1334 14.26379916 17373
ARIANE 5 R/B            
1 28499U 04049H   24160.62376696  .00001729  00000+0  20879-3 0  9994
2 28499  98.1834 298.3883 0086929 260.5572  98.5806 14.82553295 51005
CZ-2D R/B               
1 28738U 05024B   24160.47908119  .00016538  00000+0  64433-3 0  9996
2 28738  97.3630 159.1677 0009655 161.3935 198.7658 15.26001514 41337
SUZAKU (ASTRO-EII)      
1 28773U 05025A   24160.48032935  .00043369  00000+0  86621-3 0  9996
2 28773  31.3858 198.4849 0003212 193.5248 166.5322 15.45579752 45644
ALOS (DAICHI)           
1 28931U 06002A   24160.41948222  .00003862  00000+0  71651-3 0  9997
2 28931  98.0368 113.6654 0002029 116.5241 243.6171 14.65790602979692
H-2A R/B                
1 28932U 06002B   24160.24244471  .00009110  00000+0  67995-3 0  9992
2 28932  98.2075 251.4495 0070140 232.6673 126.8146 15.01117934997991
RESURS-DK 1             
1 29228U 06021A   24160.52597702  .00005036  00000+0  33992-3 0  9994
2 29228  69.9361  83.9654 0003680 341.9568  18.1464 15.07243524991014
GENESIS 1               
1 29252U 06029A   24160.46359630  .00023426  00000+0  61344-3 0  9993
2 29252  64.5135 195.5327 0023894 325.8453  34.1141 15.38410051989248
CZ-4B R/B               
1 29507U 06046C   24160.52686246  .00006662  00000+0  43433-3 0  9990
2 29507  97.6422 196.6306 0038990 307.8183  51.9517 15.07606042963417
CZ-2C R/B               
1 31114U 07010B   24160.37656964  .00000218  00000+0  12010-3 0  9994
2 31114  98.3316 296.9577 0059210 355.2791   4.7821 14.19791659888981
COSMO-SKYMED 1          
1 31598U 07023A   24160.56207532  .00001150  00000+0  15098-3 0  9993
2 31598  97.8865 343.8339 0001474  87.8410 272.2972 14.82170695919843
GENESIS 2               
1 31789U 07028A   24160.49359649  .00023956  00000+0  66146-3 0  9997
2 31789  64.4897 241.0169 0022612 226.3208 133.6050 15.36793989936081
COSMOS 2428             
1 31792U 07029A   24160.56074062 -.00000132  00000+0 -45456-4 0  9998
2 31792  70.9418 104.8768 0007910  51.9480 308.2354 14.12716764873823
SL-16 R/B               
1 31793U 07029B   24160.55600976  .00000386  00000+0  22540-3 0  9994
2 31793  70.9759  75.7110 0002359 260.4324 272.5997 14.14630684874976
KORONAS-FOTON           
1 33504U 09003A   24160.41245600  .00010463  00000+0  40233-3 0  9990
2 33504  82.4371 211.6767 0013817 270.5475  89.4180 15.26188792847684
CZ-2C R/B               
1 37731U 11030B   24160.46146741  .00002442  00000+0  33987-3 0  9996
2 37731  97.7632 124.6637 0054427 268.5694 204.7962 14.77687465695564
H-2A R/B                
1 38341U 12025E   24160.47097229  .00003748  00000+0  40034-3 0  9997
2 38341  98.4249  71.4616 0049358 235.4532 124.2019 14.88589977652890
CUSAT 2 & FALCON 9 R/B  
1 39271U 13055G   24160.50244473  .00091961  10572-5  10487-2 0  9996
2 39271  80.9328  90.1281 0301986 336.7280  22.0507 15.22565677564053
SHIJIAN-16 (SJ-16)      
1 39358U 13057A   24160.57848642  .00002579  00000+0  27766-3 0  9994
2 39358  74.9737 312.1629 0018047 219.8725 140.1136 14.88789492576267
CZ-2C R/B               
1 39364U 13059B   24160.59011922  .00401981  68353-4  90056-3 0  9990
2 39364  97.0303 210.7467 0014398 198.9459 161.1285 15.97566840591860
SL-4 R/B                
1 39679U 14021B   24160.35440198  .00013154  00000+0  48813-3 0  9999
2 39679  51.6063 170.7795 0137187 326.8461  32.3972 15.19496122558420
ALOS-2                  
1 39766U 14029A   24160.52080691  .00003754  00000+0  50922-3 0  9990
2 39766  97.9217 257.2861 0001672  99.0443 261.0958 14.79478475542361
SL-27 R/B               
1 40354U 14084B   24160.30840826  .00068472  00000+0  44873-3 0  9992
2 40354  74.7223 229.1707 0017649  24.2046 336.0010 15.75255090532749
YAOGAN-29               
1 41038U 15069A   24160.60107797  .00001000  00000+0  13368-3 0  9991
2 41038  98.0545 174.9626 0000395 264.0790  96.0377 14.81759563461191
ASTRO-H (HITOMI)        
1 41337U 16012A   24160.30249575  .00004615  00000+0  32175-3 0  9992
2 41337  31.0004 144.9573 0010636  47.5588 312.5946 15.03757455455684
HXMT (HUIYAN)           
1 42758U 17034A   24160.59203276  .00012161  00000+0  66173-3 0  9994
2 42758  43.0154 322.3932 0012899 103.4283 256.8002 15.14344082385538
CZ-2C R/B               
1 43521U 18054D   24160.33023157  .00018441  00000+0  62166-3 0  9991
2 43521  35.1449 172.4683 0055911  50.5378 310.0270 15.28337175329518
SAOCOM 1A               
1 43641U 18076A   24160.57065516  .00000999  00000+0  13195-3 0  9996
2 43641  97.8883 346.9215 0001491  86.8635 273.2748 14.82165575306695
H-2A R/B                
1 43682U 18084L   24160.50712164  .00013987  00000+0  73837-3 0  9991
2 43682  98.8522 246.5434 0044756  40.0599 320.3915 15.14802188308181
SAOCOM 1B               
1 46265U 20059A   24160.53434190  .00001037  00000+0  13673-3 0  9994
2 46265  97.8884 345.9783 0001399  90.7773 269.3600 14.82170260204073
CSS (TIANHE)            
1 48274U 21035A   24160.40490473  .00023911  00000+0  27401-3 0  9992
2 48274  41.4673 136.6415 0002288 194.4563 165.6211 15.61535416177723
COSMOS 2550             
1 48865U 21056A   24160.61355264  .00000382  00000+0  17435-4 0  9996
2 48865  67.1388 174.2433 0008395 269.9638  90.0554 15.33829167165457
2022-019U               
1 51842U 22019U   24160.58677080  .00225179  00000+0  13364-2 0  9992
2 51842  97.5101 266.7877 0019839 134.3965 225.8929 15.77124166127769
CZ-2C R/B               
1 52794U 22058K   24160.61969427  .00019617  00000+0  75945-3 0  9997
2 52794  50.1796 282.8593 0079441  93.8554 267.1490 15.23229131111813
XRISM                   
1 57800U 23137A   24160.45121989  .00008637  00000+0  65182-3 0  9996
2 57800  31.0042  68.2199 0009259 122.3953 237.7580 15.01119842 41297
SZ-17 MODULE            
1 59624U 23164C   24160.41411912  .00044202  00000+0  44142-3 0  9997
2 59624  41.4759 136.7378 0006380 208.7293 151.3196 15.64792938  6164
